{
  "type": "FeatureCollection",
  "features": [
    {
      "type": "Feature",
      "properties": {
        "norad_id": 31990,
        "name": "FENGYUN 1C DEB",
        "group": "fengyun-1c-debris",
        "lat": 1.876912882119323,
        "lon": -170.4212845960573,
        "alt_km": 856.475759655691,
        "timestamp": "2025-12-12T18:57:44.414796+00:00",
        "meta_object_name": "FENGYUN 1C DEB",
        "meta_object_id": "1999-025CPT",
        "meta_epoch": "2025-12-09T21:41:23.356320",
        "meta_mean_motion": 13.57200286,
        "meta_eccentricity": 0.02600935,
        "meta_inclination": 99.1608,
        "meta_ra_of_asc_node": 6.5848,
        "meta_arg_of_pericenter": 191.8091,
        "meta_mean_anomaly": 291.3802,
        "meta_ephemeris_type": 0,
        "meta_classification_type": "U",
        "meta_norad_cat_id": 31990,
        "meta_element_set_no": 999,
        "meta_rev_at_epoch": 62733,
        "meta_bstar": 0.00036405898,
        "meta_mean_motion_dot": 2.83e-06,
        "meta_mean_motion_ddot": 0,
        "tle_line1": "1 31990U 99025CPT 25343.90374255  .00000283  00000+0  36406-3 0  9993",
        "tle_line2": "2 31990  99.1608   6.5848 0260093 191.8091 291.3802 13.57200286627337"
      },
      "geometry": {
        "type": "Point",
        "coordinates": [
          -170.4212845960573,
          1.876912882119323
        ]
      }
    },
    {
      "type": "Feature",
      "properties": {
        "norad_id": 31991,
        "name": "FENGYUN 1C DEB",
        "group": "fengyun-1c-debris",
        "lat": -20.348636981685647,
        "lon": -8.15979821437501,
        "alt_km": 1187.4505173405341,
        "timestamp": "2025-12-12T18:57:44.414805+00:00",
        "meta_object_name": "FENGYUN 1C DEB",
        "meta_object_id": "1999-025CPU",
        "meta_epoch": "2025-12-10T18:22:22.024416",
        "meta_mean_motion": 13.6127752,
        "meta_eccentricity": 0.02446272,
        "meta_inclination": 100.4864,
        "meta_ra_of_asc_node": 173.6062,
        "meta_arg_of_pericenter": 58.2006,
        "meta_mean_anomaly": 304.2706,
        "meta_ephemeris_type": 0,
        "meta_classification_type": "U",
        "meta_norad_cat_id": 31991,
        "meta_element_set_no": 999,
        "meta_rev_at_epoch": 62060,
        "meta_bstar": 0.00020963887,
        "meta_mean_motion_dot": 1.45e-06,
        "meta_mean_motion_ddot": 0,
        "tle_line1": "1 31991U 99025CPU 25344.76553269  .00000145  00000+0  20964-3 0  9992",
        "tle_line2": "2 31991 100.4864 173.6062 0244627  58.2006 304.2706 13.61277520620609"
      },
      "geometry": {
        "type": "Point",
        "coordinates": [
          -8.15979821437501,
          -20.348636981685647
        ]
      }
    },
    {
      "type": "Feature",
      "properties": {
        "norad_id": 31992,
        "name": "FENGYUN 1C DEB",
        "group": "fengyun-1c-debris",
        "lat": 77.29658506971978,
        "lon": -99.08234413707066,
        "alt_km": 898.9762764775151,
        "timestamp": "2025-12-12T18:57:44.414816+00:00",
        "meta_object_name": "FENGYUN 1C DEB",
        "meta_object_id": "1999-025CPV",
        "meta_epoch": "2025-12-12T04:04:23.293056",
        "meta_mean_motion": 13.22988689,
        "meta_eccentricity": 0.05424019,
        "meta_inclination": 99.1658,
        "meta_ra_of_asc_node": 306.1111,
        "meta_arg_of_pericenter": 30.97,
        "meta_mean_anomaly": 332.2249,
        "meta_ephemeris_type": 0,
        "meta_classification_type": "U",
        "meta_norad_cat_id": 31992,
        "meta_element_set_no": 999,
        "meta_rev_at_epoch": 53867,
        "meta_bstar": 0.001808457,
        "meta_mean_motion_dot": 1.63e-05,
        "meta_mean_motion_ddot": 0,
        "tle_line1": "1 31992U 99025CPV 25346.16971404  .00001630  00000+0  18085-2 0  9994",
        "tle_line2": "2 31992  99.1658 306.1111 0542401  30.9700 332.2249 13.22988689538672"
      },
      "geometry": {
        "type": "Point",
        "coordinates": [
          -99.08234413707066,
          77.29658506971978
        ]
      }
    },
    {
      "type": "Feature",
      "properties": {
        "norad_id": 31993,
        "name": "FENGYUN 1C DEB",
        "group": "fengyun-1c-debris",
        "lat": 67.17724548050693,
        "lon": 161.80667467983722,
        "alt_km": 858.0452180268585,
        "timestamp": "2025-12-12T18:57:44.414826+00:00",
        "meta_object_name": "FENGYUN 1C DEB",
        "meta_object_id": "1999-025CPW",
        "meta_epoch": "2025-12-11T18:53:49.022016",
        "meta_mean_motion": 13.27449063,
        "meta_eccentricity": 0.04216025,
        "meta_inclination": 99.241,
        "meta_ra_of_asc_node": 318.1511,
        "meta_arg_of_pericenter": 137.6618,
        "meta_mean_anomaly": 225.7867,
        "meta_ephemeris_type": 0,
        "meta_classification_type": "U",
        "meta_norad_cat_id": 31993,
        "meta_element_set_no": 999,
        "meta_rev_at_epoch": 88930,
        "meta_bstar": 0.0019186068,
        "meta_mean_motion_dot": 1.364e-05,
        "meta_mean_motion_ddot": 0,
        "tle_line1": "1 31993U 99025CPW 25345.78737294  .00001364  00000+0  19186-2 0  9996",
        "tle_line2": "2 31993  99.2410 318.1511 0421602 137.6618 225.7867 13.27449063889303"
      },
      "geometry": {
        "type": "Point",
        "coordinates": [
          161.80667467983722,
          67.17724548050693
        ]
      }
    },
    {
      "type": "Feature",
      "properties": {
        "norad_id": 31994,
        "name": "FENGYUN 1C DEB",
        "group": "fengyun-1c-debris",
        "lat": -36.48255789401045,
        "lon": -12.65734446621168,
        "alt_km": 1032.8875268199608,
        "timestamp": "2025-12-12T18:57:44.414836+00:00",
        "meta_object_name": "FENGYUN 1C DEB",
        "meta_object_id": "1999-025CPX",
        "meta_epoch": "2025-12-12T05:22:50.695104",
        "meta_mean_motion": 13.95758614,
        "meta_eccentricity": 0.01622405,
        "meta_inclination": 98.5394,
        "meta_ra_of_asc_node": 340.4387,
        "meta_arg_of_pericenter": 147.4928,
        "meta_mean_anomaly": 213.6353,
        "meta_ephemeris_type": 0,
        "meta_classification_type": "U",
        "meta_norad_cat_id": 31994,
        "meta_element_set_no": 999,
        "meta_rev_at_epoch": 56789,
        "meta_bstar": 0.00014641335,
        "meta_mean_motion_dot": 1.84e-06,
        "meta_mean_motion_ddot": 0,
        "tle_line1": "1 31994U 99025CPX 25346.22419786  .00000184  00000+0  14641-3 0  9991",
        "tle_line2": "2 31994  98.5394 340.4387 0162240 147.4928 213.6353 13.95758614567892"
      },
      "geometry": {
        "type": "Point",
        "coordinates": [
          -12.65734446621168,
          -36.48255789401045
        ]
      }
    },
    {
      "type": "Feature",
      "properties": {
        "norad_id": 31997,
        "name": "FENGYUN 1C DEB",
        "group": "fengyun-1c-debris",
        "lat": -70.21606044155135,
        "lon": 68.41247032813384,
        "alt_km": 829.8207825124391,
        "timestamp": "2025-12-12T18:57:44.414846+00:00",
        "meta_object_name": "FENGYUN 1C DEB",
        "meta_object_id": "1999-025CQA",
        "meta_epoch": "2025-12-11T09:47:13.036128",
        "meta_mean_motion": 13.60665403,
        "meta_eccentricity": 0.02898133,
        "meta_inclination": 102.5103,
        "meta_ra_of_asc_node": 28.5345,
        "meta_arg_of_pericenter": 276.805,
        "meta_mean_anomaly": 80.0188,
        "meta_ephemeris_type": 0,
        "meta_classification_type": "U",
        "meta_norad_cat_id": 31997,
        "meta_element_set_no": 999,
        "meta_rev_at_epoch": 61665,
        "meta_bstar": 0.0033410301,
        "meta_mean_motion_dot": 3.262e-05,
        "meta_mean_motion_ddot": 0,
        "tle_line1": "1 31997U 99025CQA 25345.40778977  .00003262  00000+0  33410-2 0  9997",
        "tle_line2": "2 31997 102.5103  28.5345 0289813 276.8050  80.0188 13.60665403616652"
      },
      "geometry": {
        "type": "Point",
        "coordinates": [
          68.41247032813384,
          -70.21606044155135
        ]
      }
    },
    {
      "type": "Feature",
      "properties": {
        "norad_id": 32086,
        "name": "FENGYUN 1C DEB",
        "group": "fengyun-1c-debris",
        "lat": 3.555903590214873,
        "lon": -137.7191147061476,
        "alt_km": 835.3394516588678,
        "timestamp": "2025-12-12T18:57:44.414857+00:00",
        "meta_object_name": "FENGYUN 1C DEB",
        "meta_object_id": "1999-025CQC",
        "meta_epoch": "2025-12-08T22:54:23.642784",
        "meta_mean_motion": 13.68864745,
        "meta_eccentricity": 0.0300639,
        "meta_inclination": 99.2693,
        "meta_ra_of_asc_node": 38.0068,
        "meta_arg_of_pericenter": 145.3801,
        "meta_mean_anomaly": 216.7328,
        "meta_ephemeris_type": 0,
        "meta_classification_type": "U",
        "meta_norad_cat_id": 32086,
        "meta_element_set_no": 999,
        "meta_rev_at_epoch": 61729,
        "meta_bstar": 0.0024856,
        "meta_mean_motion_dot": 2.899e-05,
        "meta_mean_motion_ddot": 0,
        "tle_line1": "1 32086U 99025CQC 25342.95444031  .00002899  00000+0  24856-2 0  9994",
        "tle_line2": "2 32086  99.2693  38.0068 0300639 145.3801 216.7328 13.68864745617293"
      },
      "geometry": {
        "type": "Point",
        "coordinates": [
          -137.7191147061476,
          3.555903590214873
        ]
      }
    }
  ]
}